{"fetched_at":"2026-03-29T02:12:04Z","count":15717,"tles":[{"name":"STARLINK-32396","line1":"1 61633U 24191N   26087.25198139  .00000263  00000+0  19081-4 0  9990","line2":"2 61633  43.0018  53.2798 0001068 257.3997 102.6735 15.27574112 80331","category":"Starlink"}]}