{
  "norad_id": 61633,
  "name": "STARLINK-32396",
  "history": [
    {
      "epoch": "2026-03-28T06:02:51.192096Z",
      "apogee_km": 483.799503444513,
      "perigee_km": 482.33395032845056,
      "latitude_deg": -1.4930261395710503e-05,
      "longitude_deg": 136.89138381384174,
      "height_km": 483.00315799912795,
      "semi_major_axis_km": 6861.2037268864815,
      "eccentricity": 0.0001068,
      "inclination_deg": 43.0018,
      "raan_deg": 53.2798,
      "arg_perigee_deg": 257.3997,
      "mean_anomaly_deg": 102.6735,
      "mean_motion_rev_day": 15.27574112
    }
  ]
}